{
    "months":{
        "1":{
            "namefr": "janv"

        },
        "2":{
            "namefr": "févr"
        },
        "3":{
            "namefr": "mars"
        },
        "4":{
            "namefr": "avr"
        },
        "5":{
            "namefr": "mai"
        },
        "6":{
            "namefr": "juin"
        },
        "7":{
            "namefr": "juil"
        },
        "8":{
            "namefr": "août"
        },
        "9":{
            "namefr": "sept"
        },
        "10":{
            "namefr": "oct"
        },
        "11":{
            "namefr": "nov"
        },
        "12":{
            "namefr": "déc"
        }
    },
    "NERYOU":{
        "BANK_NAME": "CFG BANK",
        "BANK_ACCOUNT": "NERYOU SARL",
        "RIB": "050 640 009 01075325 720 01 78",
        "SWIFTCODE": "CAFGMAMC",
        "DEVIS": "MAD"
    },

    "payments_status":{
        "0": {
            "ar": "في انتظار الدفع",
            "fr": "en attente de paiement"
        },
        "1": {
            "ar": "مفعلة",
            "fr": "Activé"
        },
        "2": {
            "ar": "معلق",
            "fr": "pendaison"
        },
        "3":{
            "ar": "معاملة مشكوك فيها",
            "fr": "Traitement discutable"
        },
        "4":{
            "ar": "ملغي",
            "fr": "Annulé"
        },
        "5":{
            "ar": "قيد المراجعة",
            "fr": "en cours d'examen"
        }
    },
    "methods_de_paymetnts":{
        "0": "Manuellement",
        "1": "binga",
        "2": "transfert bancaire"
    },
    "properties":{
        "GC": "Gestion des clients",
        "SA": "Statistiques annuelles",
        "SM": "Statistiques mensuelles",
        "SW": "Statistiques de workflow",
        "SAP": "Statistiques annuelles personnalisées",
        "CDD5DA": "Chiffre d'affaires des 5 dernières années",
        "CT": "Calculateur de taxes",
        "RA": "Réseau d'auto-entrepreneurs",
        "SC": "Service clientèle",
        "FP": "Formulaires de facture et devis personnalisés",
        "CP": "Conseils professionnels",
        "MDF": "Modification des devis et factures",
        "GS": "generale statistiques",
        "IFT": "Informations fiscales trimestrielles"

    },
    "countries": [
        {
            "code": "AD",
            "name": "أندورا",
            "dialCode": "+376"
        },
        {
            "code": "AE",
            "name": "الامارات العربية المتحدة",
            "dialCode": "+971"
        },
        {
            "code": "AF",
            "name": "أفغانستان",
            "dialCode": "+93"
        },
        {
            "code": "AG",
            "name": "أنتيجوا وبربودا",
            "dialCode": "+1"
        },
        {
            "code": "AI",
            "name": "أنجويلا",
            "dialCode": "+1"
        },
        {
            "code": "AL",
            "name": "ألبانيا",
            "dialCode": "+355"
        },
        {
            "code": "AM",
            "name": "أرمينيا",
            "dialCode": "+374"
        },
        {
            "code": "AO",
            "name": "أنجولا",
            "dialCode": "+244"
        },
        {
            "code": "AQ",
            "name": "القطب الجنوبي",
            "dialCode": "+672"
        },
        {
            "code": "AR",
            "name": "الأرجنتين",
            "dialCode": "+54"
        },
        {
            "code": "AS",
            "name": "ساموا الأمريكية",
            "dialCode": "+1"
        },
        {
            "code": "AT",
            "name": "النمسا",
            "dialCode": "+43"
        },
        {
            "code": "AU",
            "name": "أستراليا",
            "dialCode": "+61"
        },
        {
            "code": "AW",
            "name": "آروبا",
            "dialCode": "+297"
        },
        {
            "code": "AX",
            "name": "جزر أولان",
            "dialCode": "+358"
        },
        {
            "code": "AZ",
            "name": "أذربيجان",
            "dialCode": "+994"
        },
        {
            "code": "BA",
            "name": "البوسنة والهرسك",
            "dialCode": "+387"
        },
        {
            "code": "BB",
            "name": "بربادوس",
            "dialCode": "+1"
        },
        {
            "code": "BD",
            "name": "بنجلاديش",
            "dialCode": "+880"
        },
        {
            "code": "BE",
            "name": "بلجيكا",
            "dialCode": "+32"
        },
        {
            "code": "BF",
            "name": "بوركينا فاسو",
            "dialCode": "+226"
        },
        {
            "code": "BG",
            "name": "بلغاريا",
            "dialCode": "+359"
        },
        {
            "code": "BH",
            "name": "البحرين",
            "dialCode": "+973"
        },
        {
            "code": "BI",
            "name": "بوروندي",
            "dialCode": "+257"
        },
        {
            "code": "BJ",
            "name": "بنين",
            "dialCode": "+229"
        },
        {
            "code": "BL",
            "name": "سان بارتيلمي",
            "dialCode": "+590"
        },
        {
            "code": "BM",
            "name": "برمودا",
            "dialCode": "+1"
        },
        {
            "code": "BN",
            "name": "بروناي",
            "dialCode": "+673"
        },
        {
            "code": "BO",
            "name": "بوليفيا",
            "dialCode": "+591"
        },
        {
            "code": "BQ",
            "name": "بونير",
            "dialCode": "+599"
        },
        {
            "code": "BR",
            "name": "البرازيل",
            "dialCode": "+55"
        },
        {
            "code": "BS",
            "name": "الباهاما",
            "dialCode": "+1"
        },
        {
            "code": "BT",
            "name": "بوتان",
            "dialCode": "+975"
        },
        {
            "code": "BV",
            "name": "جزيرة بوفيه",
            "dialCode": "+47"
        },
        {
            "code": "BW",
            "name": "بتسوانا",
            "dialCode": "+267"
        },
        {
            "code": "BY",
            "name": "روسيا البيضاء",
            "dialCode": "+375"
        },
        {
            "code": "BZ",
            "name": "بليز",
            "dialCode": "+501"
        },
        {
            "code": "CA",
            "name": "كندا",
            "dialCode": "+1"
        },
        {
            "code": "CC",
            "name": "جزر كوكوس",
            "dialCode": "+61"
        },
        {
            "code": "CD",
            "name": "جمهورية الكونغو الديمقراطية",
            "dialCode": "+243"
        },
        {
            "code": "CF",
            "name": "جمهورية افريقيا الوسطى",
            "dialCode": "+236"
        },
        {
            "code": "CG",
            "name": "الكونغو - برازافيل",
            "dialCode": "+242"
        },
        {
            "code": "CH",
            "name": "سويسرا",
            "dialCode": "+41"
        },
        {
            "code": "CI",
            "name": "ساحل العاج",
            "dialCode": "+225"
        },
        {
            "code": "CK",
            "name": "جزر كوك",
            "dialCode": "+682"
        },
        {
            "code": "CL",
            "name": "شيلي",
            "dialCode": "+56"
        },
        {
            "code": "CM",
            "name": "الكاميرون",
            "dialCode": "+237"
        },
        {
            "code": "CN",
            "name": "الصين",
            "dialCode": "+86"
        },
        {
            "code": "CO",
            "name": "كولومبيا",
            "dialCode": "+57"
        },
        {
            "code": "CR",
            "name": "كوستاريكا",
            "dialCode": "+506"
        },
        {
            "code": "CU",
            "name": "كوبا",
            "dialCode": "+53"
        },
        {
            "code": "CV",
            "name": "الرأس الأخضر",
            "dialCode": "+238"
        },
        {
            "code": "CW",
            "name": "كوراساو",
            "dialCode": "+599"
        },
        {
            "code": "CX",
            "name": "جزيرة الكريسماس",
            "dialCode": "+61"
        },
        {
            "code": "CY",
            "name": "قبرص",
            "dialCode": "+357"
        },
        {
            "code": "CZ",
            "name": "جمهورية التشيك",
            "dialCode": "+420"
        },
        {
            "code": "DE",
            "name": "ألمانيا",
            "dialCode": "+49"
        },
        {
            "code": "DJ",
            "name": "جيبوتي",
            "dialCode": "+253"
        },
        {
            "code": "DK",
            "name": "الدانمرك",
            "dialCode": "+45"
        },
        {
            "code": "DM",
            "name": "دومينيكا",
            "dialCode": "+1"
        },
        {
            "code": "DO",
            "name": "جمهورية الدومينيك",
            "dialCode": "+1"
        },
        {
            "code": "DZ",
            "name": "الجزائر",
            "dialCode": "+213"
        },
        {
            "code": "EC",
            "name": "الاكوادور",
            "dialCode": "+593"
        },
        {
            "code": "EE",
            "name": "استونيا",
            "dialCode": "+372"
        },
        {
            "code": "EG",
            "name": "مصر",
            "dialCode": "+20"
        },
        {
            "code": "ER",
            "name": "اريتريا",
            "dialCode": "+291"
        },
        {
            "code": "ES",
            "name": "أسبانيا",
            "dialCode": "+34"
        },
        {
            "code": "ET",
            "name": "اثيوبيا",
            "dialCode": "+251"
        },
        {
            "code": "FI",
            "name": "فنلندا",
            "dialCode": "+358"
        },
        {
            "code": "FJ",
            "name": "فيجي",
            "dialCode": "+679"
        },
        {
            "code": "FK",
            "name": "جزر فوكلاند",
            "dialCode": "+500"
        },
        {
            "code": "FM",
            "name": "ميكرونيزيا",
            "dialCode": "+691"
        },
        {
            "code": "FO",
            "name": "جزر فارو",
            "dialCode": "+298"
        },
        {
            "code": "FR",
            "name": "فرنسا",
            "dialCode": "+33"
        },
        {
            "code": "GA",
            "name": "الجابون",
            "dialCode": "+241"
        },
        {
            "code": "GB",
            "name": "المملكة المتحدة",
            "dialCode": "+44"
        },
        {
            "code": "GD",
            "name": "جرينادا",
            "dialCode": "+1"
        },
        {
            "code": "GE",
            "name": "جورجيا",
            "dialCode": "+995"
        },
        {
            "code": "GF",
            "name": "غويانا",
            "dialCode": "+594"
        },
        {
            "code": "GG",
            "name": "غيرنزي",
            "dialCode": "+44"
        },
        {
            "code": "GH",
            "name": "غانا",
            "dialCode": "+233"
        },
        {
            "code": "GI",
            "name": "جبل طارق",
            "dialCode": "+350"
        },
        {
            "code": "GL",
            "name": "جرينلاند",
            "dialCode": "+299"
        },
        {
            "code": "GM",
            "name": "غامبيا",
            "dialCode": "+220"
        },
        {
            "code": "GN",
            "name": "غينيا",
            "dialCode": "+224"
        },
        {
            "code": "GP",
            "name": "جوادلوب",
            "dialCode": "+590"
        },
        {
            "code": "GQ",
            "name": "غينيا الاستوائية",
            "dialCode": "+240"
        },
        {
            "code": "GR",
            "name": "اليونان",
            "dialCode": "+30"
        },
        {
            "code": "GS",
            "name": "جورجيا الجنوبية وجزر ساندويتش الجنوبية",
            "dialCode": "+500"
        },
        {
            "code": "GT",
            "name": "جواتيمالا",
            "dialCode": "+502"
        },
        {
            "code": "GU",
            "name": "جوام",
            "dialCode": "+1"
        },
        {
            "code": "GW",
            "name": "غينيا بيساو",
            "dialCode": "+245"
        },
        {
            "code": "GY",
            "name": "غيانا",
            "dialCode": "+595"
        },
        {
            "code": "HK",
            "name": "هونج كونج الصينية",
            "dialCode": "+852"
        },
        {
            "code": "HM",
            "name": "جزيرة هيرد وماكدونالد",
            "dialCode": ""
        },
        {
            "code": "HN",
            "name": "هندوراس",
            "dialCode": "+504"
        },
        {
            "code": "HR",
            "name": "كرواتيا",
            "dialCode": "+385"
        },
        {
            "code": "HT",
            "name": "هايتي",
            "dialCode": "+509"
        },
        {
            "code": "HU",
            "name": "المجر",
            "dialCode": "+36"
        },
        {
            "code": "ID",
            "name": "اندونيسيا",
            "dialCode": "+62"
        },
        {
            "code": "IE",
            "name": "أيرلندا",
            "dialCode": "+353"
        },
        {
            "code": "IL",
            "name": "اسرائيل",
            "dialCode": "+972"
        },
        {
            "code": "IM",
            "name": "جزيرة مان",
            "dialCode": "+44"
        },
        {
            "code": "IN",
            "name": "الهند",
            "dialCode": "+91"
        },
        {
            "code": "IO",
            "name": "المحيط الهندي البريطاني",
            "dialCode": "+246"
        },
        {
            "code": "IQ",
            "name": "العراق",
            "dialCode": "+964"
        },
        {
            "code": "IR",
            "name": "ايران",
            "dialCode": "+98"
        },
        {
            "code": "IS",
            "name": "أيسلندا",
            "dialCode": "+354"
        },
        {
            "code": "IT",
            "name": "ايطاليا",
            "dialCode": "+39"
        },
        {
            "code": "JE",
            "name": "جيرسي",
            "dialCode": "+44"
        },
        {
            "code": "JM",
            "name": "جامايكا",
            "dialCode": "+1"
        },
        {
            "code": "JO",
            "name": "الأردن",
            "dialCode": "+962"
        },
        {
            "code": "JP",
            "name": "اليابان",
            "dialCode": "+81"
        },
        {
            "code": "KE",
            "name": "كينيا",
            "dialCode": "+254"
        },
        {
            "code": "KG",
            "name": "قرغيزستان",
            "dialCode": "+996"
        },
        {
            "code": "KH",
            "name": "كمبوديا",
            "dialCode": "+855"
        },
        {
            "code": "KI",
            "name": "كيريباتي",
            "dialCode": "+686"
        },
        {
            "code": "KM",
            "name": "جزر القمر",
            "dialCode": "+269"
        },
        {
            "code": "KN",
            "name": "سانت كيتس ونيفيس",
            "dialCode": "+1"
        },
        {
            "code": "KP",
            "name": "كوريا الشمالية",
            "dialCode": "+850"
        },
        {
            "code": "KR",
            "name": "كوريا الجنوبية",
            "dialCode": "+82"
        },
        {
            "code": "KW",
            "name": "الكويت",
            "dialCode": "+965"
        },
        {
            "code": "KY",
            "name": "جزر الكايمن",
            "dialCode": "+345"
        },
        {
            "code": "KZ",
            "name": "كازاخستان",
            "dialCode": "+7"
        },
        {
            "code": "LA",
            "name": "لاوس",
            "dialCode": "+856"
        },
        {
            "code": "LB",
            "name": "لبنان",
            "dialCode": "+961"
        },
        {
            "code": "LC",
            "name": "سانت لوسيا",
            "dialCode": "+1"
        },
        {
            "code": "LI",
            "name": "ليختنشتاين",
            "dialCode": "+423"
        },
        {
            "code": "LK",
            "name": "سريلانكا",
            "dialCode": "+94"
        },
        {
            "code": "LR",
            "name": "ليبيريا",
            "dialCode": "+231"
        },
        {
            "code": "LS",
            "name": "ليسوتو",
            "dialCode": "+266"
        },
        {
            "code": "LT",
            "name": "ليتوانيا",
            "dialCode": "+370"
        },
        {
            "code": "LU",
            "name": "لوكسمبورج",
            "dialCode": "+352"
        },
        {
            "code": "LV",
            "name": "لاتفيا",
            "dialCode": "+371"
        },
        {
            "code": "LY",
            "name": "ليبيا",
            "dialCode": "+218"
        },
        {
            "code": "MA",
            "name": "المغرب",
            "dialCode": "+212"
        },
        {
            "code": "MC",
            "name": "موناكو",
            "dialCode": "+377"
        },
        {
            "code": "MD",
            "name": "مولدافيا",
            "dialCode": "+373"
        },
        {
            "code": "ME",
            "name": "الجبل الأسود",
            "dialCode": "+382"
        },
        {
            "code": "MF",
            "name": "سانت مارتين",
            "dialCode": "+590"
        },
        {
            "code": "MG",
            "name": "مدغشقر",
            "dialCode": "+261"
        },
        {
            "code": "MH",
            "name": "جزر المارشال",
            "dialCode": "+692"
        },
        {
            "code": "MK",
            "name": "مقدونيا",
            "dialCode": "+389"
        },
        {
            "code": "ML",
            "name": "مالي",
            "dialCode": "+223"
        },
        {
            "code": "MM",
            "name": "ميانمار",
            "dialCode": "+95"
        },
        {
            "code": "MN",
            "name": "منغوليا",
            "dialCode": "+976"
        },
        {
            "code": "MO",
            "name": "ماكاو الصينية",
            "dialCode": "+853"
        },
        {
            "code": "MP",
            "name": "جزر ماريانا الشمالية",
            "dialCode": "+1"
        },
        {
            "code": "MQ",
            "name": "مارتينيك",
            "dialCode": "+596"
        },
        {
            "code": "MR",
            "name": "موريتانيا",
            "dialCode": "+222"
        },
        {
            "code": "MS",
            "name": "مونتسرات",
            "dialCode": "+1"
        },
        {
            "code": "MT",
            "name": "مالطا",
            "dialCode": "+356"
        },
        {
            "code": "MU",
            "name": "موريشيوس",
            "dialCode": "+230"
        },
        {
            "code": "MV",
            "name": "جزر الملديف",
            "dialCode": "+960"
        },
        {
            "code": "MW",
            "name": "ملاوي",
            "dialCode": "+265"
        },
        {
            "code": "MX",
            "name": "المكسيك",
            "dialCode": "+52"
        },
        {
            "code": "MY",
            "name": "ماليزيا",
            "dialCode": "+60"
        },
        {
            "code": "MZ",
            "name": "موزمبيق",
            "dialCode": "+258"
        },
        {
            "code": "NA",
            "name": "ناميبيا",
            "dialCode": "+264"
        },
        {
            "code": "NC",
            "name": "كاليدونيا الجديدة",
            "dialCode": "+687"
        },
        {
            "code": "NE",
            "name": "النيجر",
            "dialCode": "+227"
        },
        {
            "code": "NF",
            "name": "جزيرة نورفوك",
            "dialCode": "+672"
        },
        {
            "code": "NG",
            "name": "نيجيريا",
            "dialCode": "+234"
        },
        {
            "code": "NI",
            "name": "نيكاراجوا",
            "dialCode": "+505"
        },
        {
            "code": "NL",
            "name": "هولندا",
            "dialCode": "+31"
        },
        {
            "code": "NO",
            "name": "النرويج",
            "dialCode": "+47"
        },
        {
            "code": "NP",
            "name": "نيبال",
            "dialCode": "+977"
        },
        {
            "code": "NR",
            "name": "نورو",
            "dialCode": "+674"
        },
        {
            "code": "NU",
            "name": "نيوي",
            "dialCode": "+683"
        },
        {
            "code": "NZ",
            "name": "نيوزيلاندا",
            "dialCode": "+64"
        },
        {
            "code": "OM",
            "name": "عمان",
            "dialCode": "+968"
        },
        {
            "code": "PA",
            "name": "بنما",
            "dialCode": "+507"
        },
        {
            "code": "PE",
            "name": "بيرو",
            "dialCode": "+51"
        },
        {
            "code": "PF",
            "name": "بولينيزيا الفرنسية",
            "dialCode": "+689"
        },
        {
            "code": "PG",
            "name": "بابوا غينيا الجديدة",
            "dialCode": "+675"
        },
        {
            "code": "PH",
            "name": "الفيلبين",
            "dialCode": "+63"
        },
        {
            "code": "PK",
            "name": "باكستان",
            "dialCode": "+92"
        },
        {
            "code": "PL",
            "name": "بولندا",
            "dialCode": "+48"
        },
        {
            "code": "PM",
            "name": "سانت بيير وميكولون",
            "dialCode": "+508"
        },
        {
            "code": "PN",
            "name": "بتكايرن",
            "dialCode": "+872"
        },
        {
            "code": "PR",
            "name": "بورتوريكو",
            "dialCode": "+1"
        },
        {
            "code": "PS",
            "name": "فلسطين",
            "dialCode": "+970"
        },
        {
            "code": "PT",
            "name": "البرتغال",
            "dialCode": "+351"
        },
        {
            "code": "PW",
            "name": "بالاو",
            "dialCode": "+680"
        },
        {
            "code": "PY",
            "name": "باراجواي",
            "dialCode": "+595"
        },
        {
            "code": "QA",
            "name": "قطر",
            "dialCode": "+974"
        },
        {
            "code": "RE",
            "name": "روينيون",
            "dialCode": "+262"
        },
        {
            "code": "RO",
            "name": "رومانيا",
            "dialCode": "+40"
        },
        {
            "code": "RS",
            "name": "صربيا",
            "dialCode": "+381"
        },
        {
            "code": "RU",
            "name": "روسيا",
            "dialCode": "+7"
        },
        {
            "code": "RW",
            "name": "رواندا",
            "dialCode": "+250"
        },
        {
            "code": "SA",
            "name": "المملكة العربية السعودية",
            "dialCode": "+966"
        },
        {
            "code": "SB",
            "name": "جزر سليمان",
            "dialCode": "+677"
        },
        {
            "code": "SC",
            "name": "سيشل",
            "dialCode": "+248"
        },
        {
            "code": "SD",
            "name": "السودان",
            "dialCode": "+249"
        },
        {
            "code": "SE",
            "name": "السويد",
            "dialCode": "+46"
        },
        {
            "code": "SG",
            "name": "سنغافورة",
            "dialCode": "+65"
        },
        {
            "code": "SH",
            "name": "سانت هيلنا",
            "dialCode": "+290"
        },
        {
            "code": "SI",
            "name": "سلوفينيا",
            "dialCode": "+386"
        },
        {
            "code": "SJ",
            "name": "سفالبارد وجان مايان",
            "dialCode": "+47"
        },
        {
            "code": "SK",
            "name": "سلوفاكيا",
            "dialCode": "+421"
        },
        {
            "code": "SL",
            "name": "سيراليون",
            "dialCode": "+232"
        },
        {
            "code": "SM",
            "name": "سان مارينو",
            "dialCode": "+378"
        },
        {
            "code": "SN",
            "name": "السنغال",
            "dialCode": "+221"
        },
        {
            "code": "SO",
            "name": "الصومال",
            "dialCode": "+252"
        },
        {
            "code": "SR",
            "name": "سورينام",
            "dialCode": "+597"
        },
        {
            "code": "SS",
            "name": "جنوب السودان",
            "dialCode": "+211"
        },
        {
            "code": "ST",
            "name": "ساو تومي وبرينسيبي",
            "dialCode": "+239"
        },
        {
            "code": "SV",
            "name": "السلفادور",
            "dialCode": "+503"
        },
        {
            "code": "SX",
            "name": "سينت مارتن",
            "dialCode": "+1"
        },
        {
            "code": "SY",
            "name": "سوريا",
            "dialCode": "+963"
        },
        {
            "code": "SZ",
            "name": "سوازيلاند",
            "dialCode": "+268"
        },
        {
            "code": "TC",
            "name": "جزر الترك وجايكوس",
            "dialCode": "+1"
        },
        {
            "code": "TD",
            "name": "تشاد",
            "dialCode": "+235"
        },
        {
            "code": "TF",
            "name": "المقاطعات الجنوبية الفرنسية",
            "dialCode": "+262"
        },
        {
            "code": "TG",
            "name": "توجو",
            "dialCode": "+228"
        },
        {
            "code": "TH",
            "name": "تايلند",
            "dialCode": "+66"
        },
        {
            "code": "TJ",
            "name": "طاجكستان",
            "dialCode": "+992"
        },
        {
            "code": "TK",
            "name": "توكيلو",
            "dialCode": "+690"
        },
        {
            "code": "TL",
            "name": "تيمور الشرقية",
            "dialCode": "+670"
        },
        {
            "code": "TM",
            "name": "تركمانستان",
            "dialCode": "+993"
        },
        {
            "code": "TN",
            "name": "تونس",
            "dialCode": "+216"
        },
        {
            "code": "TO",
            "name": "تونجا",
            "dialCode": "+676"
        },
        {
            "code": "TR",
            "name": "تركيا",
            "dialCode": "+90"
        },
        {
            "code": "TT",
            "name": "ترينيداد وتوباغو",
            "dialCode": "+1"
        },
        {
            "code": "TV",
            "name": "توفالو",
            "dialCode": "+688"
        },
        {
            "code": "TW",
            "name": "تايوان",
            "dialCode": "+886"
        },
        {
            "code": "TZ",
            "name": "تانزانيا",
            "dialCode": "+255"
        },
        {
            "code": "UA",
            "name": "أوكرانيا",
            "dialCode": "+380"
        },
        {
            "code": "UG",
            "name": "أوغندا",
            "dialCode": "+256"
        },
        {
            "code": "UM",
            "name": "جزر الولايات المتحدة البعيدة الصغيرة",
            "dialCode": ""
        },
        {
            "code": "US",
            "name": "الولايات المتحدة الأمريكية",
            "dialCode": "+1"
        },
        {
            "code": "UY",
            "name": "أورجواي",
            "dialCode": "+598"
        },
        {
            "code": "UZ",
            "name": "أوزبكستان",
            "dialCode": "+998"
        },
        {
            "code": "VA",
            "name": "الفاتيكان",
            "dialCode": "+379"
        },
        {
            "code": "VC",
            "name": "سانت فنسنت وغرنادين",
            "dialCode": "+1"
        },
        {
            "code": "VE",
            "name": "فنزويلا",
            "dialCode": "+58"
        },
        {
            "code": "VG",
            "name": "جزر فرجين البريطانية",
            "dialCode": "+1"
        },
        {
            "code": "VI",
            "name": "جزر فرجين الأمريكية",
            "dialCode": "+1"
        },
        {
            "code": "VN",
            "name": "فيتنام",
            "dialCode": "+84"
        },
        {
            "code": "VU",
            "name": "فانواتو",
            "dialCode": "+678"
        },
        {
            "code": "WF",
            "name": "جزر والس وفوتونا",
            "dialCode": "+681"
        },
        {
            "code": "WS",
            "name": "ساموا",
            "dialCode": "+685"
        },
        {
            "code": "XK",
            "name": "كوسوفو",
            "dialCode": "+383"
        },
        {
            "code": "YE",
            "name": "اليمن",
            "dialCode": "+967"
        },
        {
            "code": "YT",
            "name": "مايوت",
            "dialCode": "+262"
        },
        {
            "code": "ZA",
            "name": "جمهورية جنوب افريقيا",
            "dialCode": "+27"
        },
        {
            "code": "ZM",
            "name": "زامبيا",
            "dialCode": "+260"
        },
        {
            "code": "ZW",
            "name": "زيمبابوي",
            "dialCode": "+263"
        }
    ],
    "sizeofproject": {
        "0": "من 0 درهم الى 100,000 درهم (1,299 درهم )",
        "1": "من 100,001 درهم الى 150,000 درهم (1,399 درهم )",
        "2": "من 150,001 درهم الى 200,000 درهم (1,599 درهم )",
        "3": "من 300,001 درهم الى 600,000 درهم (3,299 درهم )",
        "4": "من 600,000 درهم الى 12,000,000 درهم (4,299 درهم )"
    },
    "demande_etude_price": {
        "0": "1299",
        "1": "1399",
        "2": "1599",
        "3": "3299",
        "4": "4299"
    },
    "timeconsultation": {
        "0": "من 8:00 الى 9:00",
        "1": "من 9:00 الى 10:00",
        "2": "من 10:00 الى 11:00",
        "3": "من 11:00 الى 12:00",
        "4": "من 12:00 الى 13:00",
        "5": "من 13:00 الى 14:00",
        "6": "من 14:00 الى 15:00",
        "7": "من 15:00 الى 16:00",
        "8": "من 16:00 الى 17:00",
        "9": "من 17:00 الى 18:00"
    },

    "status_cart":{
        "0":{
            "ar":"متروك"
        },
        "1":{
            "ar":"تمت المعالجة"
        }
    },
"_2147845":{
    "packs": {
        "1": {
            "name": "الباقة الابتدائية",
            "namefr": "Forfait élémentaire",
            "price": 99,
            "price_year": 899,
            "most": false,
            "save": 50,
            "content": {
                "0": "نظام إدارة الفواتير وعروض الأسعار",
                "1": "60 فاتورة وعرض أسعار شهرياََ",
                "2": "نظام إدارة العملاء",
                "3": "احصائيات سير العمل",
                "4": "الاحصائيات الشهرية",
                "5": "خدمة العملاء",
                "6": "نماذج فواتير وعروض أسعار مخصصة",
                "7": "الوصل 7/24",
                "8": "تعديل على عروض الأسعار والفواتير"

            },
            "points": 60,
            "time_payments": "شهر",
            "properties": ["GS"]
        },
        "2": {
            "name": "الباقة المتوسطة",
            "namefr": "Forfait moyen",
            "price": 199,
            "price_year": 1499,
            "save": 50,
            "most": true,

            "content": {
                "0": "نظام إدارة الفواتير وعروض الأسعار",
                "1": "400 فاتورة وعرض أسعار شهرياََ",
                "2": "نظام إدارة العملاء",
                "3": "احصائيات سير العمل",
                "4": "حاسبة الضرائب ",
                "5": "خدمة العملاء",
                "6": "نماذج فواتير وعروض أسعار مخصصة",
                "7": "الوصل 7/24",
                "8": "الاحصائيات والتقارير الشهرية للمبيعات",
                "9": "الاحصائيات والتقارير السنوية للمبيعات",
                "10": "تعديل على عروض الأسعار والفواتير"
            },
            "points": 400,
            "time_payments": "شهر",
            "properties": ["SA","GS", "IFT"]

        },
        "3": {
            "name": "الباقة الاحترافية",
            "namefr": "Forfait Professionnel",
            "price": 299,
            "price_year": 2499,
            "save": 50,
            "most": false,
            "large": true,
            "content": {
                "0": "نظام إدارة الفواتير وعروض الأسعار",
                "1": "فواتير وعروض أسعار غير محدودة",
                "2": "نظام إدارة العملاء",
                "3": "احصائيات سير العمل",
                "4": "حاسبة الضرائب ",
                "5": "خدمة العملاء",
                "6": "نماذج فواتير وعروض أسعار مخصصة",
                "7": "الوصل 7/24",
                "8": "الاحصائيات والتقارير الشهرية للمبيعات",
                "9": "الاحصائيات والتقارير السنوية للمبيعات",
                "10": "التواصل مع العملاء المحتملين",
                "11": "تعديل على عروض الأسعار والفواتير",
                "12": "احصائيات مخصصة"
            },
            "points": "unlimited",
            "time_payments": "شهر",
            "properties": ["GS","SAP", "SA", "CDD5DA", "IFT"]


        }
    }

},

    "devis_status":{
        "0": "جديد",
        "1": "في انتظار التسليم",
        "2": "تم التسليم",
        "3": "في انتظار الدفع",
        "4": "تم الدفع",
        "5": "مكتمل",
        "6": "بدون رد",
        "7": "ملغي"
    },
    "facture_status":{
        "0": "جديد",
        "1": "في انتظار التسليم",
        "2": "تم التسليم",
        "3": "في انتظار الدفع",
        "4": "تم الدفع",
        "5": "مكتمل",
        "6": "بدون رد",
        "7": "ملغي"
    },
    "facture_status_fr":{
        "0": "Nouveau",
        "1": "en attente pour la livraison",
        "2": "Livré.",
        "3": "En attente de paiement",
        "4": "payé",
        "5": "compléter",
        "6": "pas de réponses",
        "7": "annulé"
    },
    "condition": {
        "0": null,
        "1": "Remarque: le travail sur le fichier commence après l'envoi de %10 de la valeur totale de l'offre. ",
        "2": "Remarque: le travail sur le fichier commence après l'envoi de %15 de la valeur totale de l'offre.",
        "3": "Remarque: le travail sur le fichier commence après l'envoi de %20 de la valeur totale de l'offre.",
        "4": "Remarque: le travail sur le fichier commence après l'envoi de %25 de la valeur totale de l'offre.",
        "5": "Remarque: le travail sur le fichier commence après l'envoi de %30 de la valeur totale de l'offre.",
        "6": "Remarque: le travail sur le fichier commence après l'envoi de %35 de la valeur totale de l'offre.",
        "7": "Remarque: le travail sur le fichier commence après l'envoi de %40 de la valeur totale de l'offre.",
        "8": "Remarque: le travail sur le fichier commence après l'envoi de %45 de la valeur totale de l'offre.",
        "9": "Remarque: le travail sur le fichier commence après l'envoi de %50 de la valeur totale de l'offre.",
        "10": "Remarque: le travail sur le fichier commence après l'envoi de %60 de la valeur totale de l'offre.",
        "11": "Remarque: le travail sur le fichier commence après l'envoi de %70 de la valeur totale de l'offre.",
        "12": "Remarque: le travail sur le fichier commence après l'envoi de %100 de la valeur totale de l'offre."
    },
    "p_method": {
        "0": "بدون",
        "1": "الدفع نقداََ",
        "2": " تحويل بنكي",
        "3": "الدفع بواسطة شيك"
    },
    "p_method_fr": {
        "0": "Sans",
        "1": "payer cash",
        "2": " transfert bancaire",
        "3": "Payer par chèque"
    },
    "sector": {
        "0": "صناعة",
        "1": "خدمات",
        "2": "تجارة",
        "3": "الفنون والحرف اليدوية"
    },
    "sector_fr": {
        "0": "Fabrication",
        "1": "Services",
        "2": "Commerce",
        "3": "l'artisanat"
    },
    "webinfo": {
        "rib": "230028858770621101390003 CIH BANK"
    },
    "type_clients": {
        "0": "شخص ذاتي",
        "1": "شركة",
        "3": "جمعية",
        "4": "تعاونية"
    },
    "socialmedia": {
        "facebook": "https://www.facebook.com/desky.ma/",
        "youtube": "https://www.youtube.com/channel/UC_Sa5kh5-csU2sWquPmXxsg",
        "twitter": "http://twitter.com/desky_ma",
        "instagram": "https://www.instagram.com/desky.ma"
    },
    "devis_template":{
        "0":{
            "name": "STANDARD",
            "preview_image": "model-standard.jpg",
            "url": "standard",
            "date": "21/05/2021"
        }

    },
    "facture_template":{
        "0":{
            "name": "STANDARD",
            "preview_image": "model-standard.jpg",
            "url": "standard",
            "date": "21/05/2021"
        }


    },
    "pricing": {
        "demande_auto_card": "200"
    },
    "accountType": {
     "0":{
         "name":"compte auto-entrepreneur",
         "Pouvoirs": null
     },
     "1":{
        "name":"Compte de recherche d'auto-entrepreneur",
        "Pouvoirs": null
    }
    }
}
